FF KZNYUSNS
200000 KZNY
UA /OV KJFK/TM 2000/FL240/TP B738/TB MOD/RM PRODUCT DEMO PIREP
SIGMET DEMO 1 VALID 200000/200400 FROM 3000N15000W TO 3100N14900W EMBD TS MOV E 25KT TOP FL450 INTSF
METAR KJFK 200000Z 18012G22KT 1/2SM +TSRA BKN004 OVC010 18/16 A2992
