METAR KJFK 200000Z 18012KT P6SM FEW020 SCT050 18/12 A2992
METAR KLAX 200053Z VRB03KT 10SM CLR 19/11 A3001
SPECI KDEN 200115Z 35018G28KT 1/2SM +SN BKN004 OVC010 M05/M08 A2988
METAR KORD 200151Z 24012KT 3SM -RA BR BKN008 OVC015 12/10 A2994
METAR KATL 200152Z 21008KT 6SM HZ SCT025 BKN080 26/19 A3010
METAR KSEA 200153Z 16010KT 2SM RA BR OVC006 09/08 A3004
SPECI KBOS 200201Z 09022G35KT 1SM +RA FG VV003 07/07 A2968 RMK PRESFR
METAR KMIA 200253Z 12009KT P6SM TSRA SCT015CB BKN030 28/24 A3002
METAR KPHX 200251Z 27008KT 10SM SKC 34/02 A2997
METAR KSFO 200256Z 29018KT 10SM FEW008 BKN012 13/10 A3015
METAR KMSP 200253Z 32015G25KT 2SM -SN BLSN OVC009 M03/M07 A3008
METAR KLAS 200256Z 22012KT 10SM FEW120 32/M02 A2989
METAR KIAH 200253Z 16006KT 5SM BR SCT006 BKN020 24/23 A3005
SPECI KDCA 200305Z 04012KT 3/4SM FG VV002 11/11 A2990
METAR KCLT 200252Z 19007KT 4SM RA BKN012 OVC025 18/17 A3000
METAR KDTW 200253Z 26020G32KT 1SM TSRA BKN006CB OVC020 16/14 A2975
METAR KPDX 200253Z 13005KT P6SM -RA BKN018 OVC035 10/08 A3012
METAR KJFK COR 200300Z 18012G22KT 4SM RA BKN008 17/15 A2987 RMK COR
METAR KDAL 200253Z 17014KT 2SM +TSRA BKN010CB 25/22 A2991
SPECI KJFK 200000Z 12008KT M1/4SM R04/1200FT FG VV002 18/12 A2992
