TAF KJFK 200000Z 2000/2106 18012KT P6SM BKN020 FM200300 2SM RA BKN008 TEMPO 2004/2008 1/2SM FG VV002
TAF AMD KLAX 200100Z 2001/2106 VRB03KT P6SM SKC FM201800 26012KT P6SM FEW020
TAF KDEN 200000Z 2000/2106 35018G28KT 2SM SN BKN010 FM200600 P6SM SCT030
TAF KORD 200000Z 2000/2106 24012KT 3SM RA BKN008 BECMG 2002/2004 P6SM BKN020
TAF KATL 200000Z 2000/2106 21008KT P6SM SCT025 PROB30 2008/2012 2SM TSRA BKN015CB
TAF KSEA 200000Z 2000/2106 16010KT 2SM RA OVC006 TEMPO 2003/2007 1SM BR
TAF KBOS 200000Z 2000/2106 09022G35KT 1SM RA FG VV003 FM200900 31015KT P6SM SCT025
TAF KMIA 200000Z 2000/2106 12009KT P6SM VCTS SCT015CB PROB40 TEMPO 2006/2010 1SM TSRA BKN008CB
TAF KPHX 200000Z 2000/2106 27008KT P6SM SKC
TAF KSFO 200000Z 2000/2106 29018KT P6SM FEW008 BKN012 TEMPO 2010/2015 3SM BR
TAF KMSP 200000Z 2000/2106 32015G25KT 2SM SN BLSN OVC009 FM200800 33012KT P6SM SCT020
TAF KLAS 200000Z 2000/2106 22012KT P6SM FEW120
TAF KIAH 200000Z 2000/2106 16006KT 5SM BR SCT006 BKN020 BECMG 2004/2006 P6SM SCT025
TAF KDCA 200000Z 2000/2106 04012KT 3/4SM FG VV002 TEMPO 2002/2006 1/4SM FG VV001
TAF KCLT 200000Z 2000/2106 19007KT 4SM RA BKN012 OVC025 FM201200 P6SM SCT030
TAF KDTW 200000Z 2000/2106 26020G32KT 1SM TSRA BKN006CB PROB30 2001/2004 +TSRA
TAF KPDX 200000Z 2000/2106 13005KT P6SM -RA BKN018 OVC035
TAF COR KJFK 200000Z 2000/2106 18012G22KT 4SM RA BKN008 FM200500 P6SM BKN020
TAF KDAL 200000Z 2000/2106 17014KT 2SM TSRA BKN010CB TEMPO 2000/2003 +TSRA
TAF KJFK 302300Z 3023/0106 18010KT P6SM SCT020 FM010300 1SM BR BKN004
