01GGNC07GP
CNS000 300334
GG KDZZNAXX
300334 KGPS
UUA /TP B739 /OV 30N150W /TM 0015 /FL250 /IC SEV /RM RAPID ICE ACCRETION
SIGMET CONV EXTREME VALID 200000/200600 FROM N3000 W15000 TO N3000 W14900 TO N3100 W14900 FL240-260 MOV 090 35 CONF 95 TOPS FL450 GROWING
AIRMET ZULU VALID 200000/200600 ICE MOD FROM 30N150W TO 31N149W FL180-240 MOV 090 25 CONF 70
METAR KJFK 200000Z 18012G22KT 1/2SM +TSRA BKN004 OVC008 18/16 A2992
TAF KJFK 200000Z 2000/2106 2SM RA BKN010 FM200300 1/2SM TSRA BKN004 TEMPO 2004/2008 1/4SM FG VV002
CWAP NEXRAD 3000N15000W 3000N14900W 3100N14900W FH 2 MOV 090 40 CONF 85 TOPS FL420 MATURE
UA /TP B738 /OV 3000N15000W /TM 0030 /FL240 /TB MOD /RM MOD TURB
CONVECTIVE SIGMET 1E VALID UNTIL 200600Z FROM 30N150W TO 31N149W TOP FL450 MOV NE 25KT
SPECI KJFK 200030Z 12008KT M1/4SM R04/1200FT FG VV002 18/12 A2992
CWAF NEXRAD 3000N15000W 3000N14900W 3100N14900W FH 4 MOV 090 45 CONF 60 TOPS FL430 GROWTH

