METAR KJFK 200000Z 12008KT M1/4SM R04/1200FT FG VV002 18/12 A2992
