TAF KJFK 200000Z 2000/2106 16012KT P6SM BKN020
FM200300 1SM TSRA BKN006 OVC012
TEMPO 2004/2008 1/4SM +TSRA FG VV002
PROB30 2008/2012 3SM RA BKN012
